[{"OBJECT_NAME":"ONEWEB-0248","OBJECT_ID":"2021-045AH","EPOCH":"2025-12-14T07:02:06.871776","MEAN_MOTION":13.15550727,"ECCENTRICITY":0.00019882,"INCLINATION":87.9001,"RA_OF_ASC_NODE":296.0742,"ARG_OF_PERICENTER":60.8799,"MEAN_ANOMALY":299.253,"EPHEMERIS_TYPE":0,"CLASSIFICATION_TYPE":"U","NORAD_CAT_ID":48798,"ELEMENT_SET_NO":999,"REV_AT_EPOCH":22010,"BSTAR":0.0002048545,"MEAN_MOTION_DOT":9.0e-7,"MEAN_MOTION_DDOT":0},{"OBJECT_NAME":"ONEWEB-0225","OBJECT_ID":"2021-045AJ","EPOCH":"2025-12-14T07:34:04.017792","MEAN_MOTION":13.15550525,"ECCENTRICITY":0.00023017,"INCLINATION":87.8991,"RA_OF_ASC_NODE":296.0935,"ARG_OF_PERICENTER":67.4261,"MEAN_ANOMALY":292.7113,"EPHEMERIS_TYPE":0,"CLASSIFICATION_TYPE":"U","NORAD_CAT_ID":48799,"ELEMENT_SET_NO":999,"REV_AT_EPOCH":22011,"BSTAR":0.00073803866,"MEAN_MOTION_DOT":2.91e-6,"MEAN_MOTION_DDOT":0},{"OBJECT_NAME":"ONEWEB-0215","OBJECT_ID":"2021-045AK","EPOCH":"2025-12-14T06:50:42.942336","MEAN_MOTION":13.15550631,"ECCENTRICITY":0.00022626,"INCLINATION":87.9006,"RA_OF_ASC_NODE":296.0608,"ARG_OF_PERICENTER":62.5168,"MEAN_ANOMALY":297.6193,"EPHEMERIS_TYPE":0,"CLASSIFICATION_TYPE":"U","NORAD_CAT_ID":48800,"ELEMENT_SET_NO":999,"REV_AT_EPOCH":21998,"BSTAR":0.00016848652,"MEAN_MOTION_DOT":7.6e-7,"MEAN_MOTION_DDOT":0},{"OBJECT_NAME":"ONEWEB-0216","OBJECT_ID":"2021-045AL","EPOCH":"2025-12-14T07:04:25.149792","MEAN_MOTION":13.15549849,"ECCENTRICITY":0.00019936,"INCLINATION":87.8992,"RA_OF_ASC_NODE":296.0895,"ARG_OF_PERICENTER":81.275,"MEAN_ANOMALY":278.8606,"EPHEMERIS_TYPE":0,"CLASSIFICATION_TYPE":"U","NORAD_CAT_ID":48801,"ELEMENT_SET_NO":999,"REV_AT_EPOCH":21999,"BSTAR":0.00023753421,"MEAN_MOTION_DOT":1.02e-6,"MEAN_MOTION_DDOT":0},{"OBJECT_NAME":"ONEWEB-0239","OBJECT_ID":"2021-045AM","EPOCH":"2025-12-14T07:11:14.356608","MEAN_MOTION":13.15551563,"ECCENTRICITY":0.00020794,"INCLINATION":87.8991,"RA_OF_ASC_NODE":296.103,"ARG_OF_PERICENTER":55.4995,"MEAN_ANOMALY":304.6332,"EPHEMERIS_TYPE":0,"CLASSIFICATION_TYPE":"U","NORAD_CAT_ID":48802,"ELEMENT_SET_NO":999,"REV_AT_EPOCH":22003,"BSTAR":0.00037828232,"MEAN_MOTION_DOT":1.55e-6,"MEAN_MOTION_DDOT":0},{"OBJECT_NAME":"ONEWEB-0249","OBJECT_ID":"2021-060A","EPOCH":"2025-12-14T07:17:01.410720","MEAN_MOTION":13.16595909,"ECCENTRICITY":0.00017834,"INCLINATION":87.9042,"RA_OF_ASC_NODE":265.5925,"ARG_OF_PERICENTER":70.1822,"MEAN_ANOMALY":289.9501,"EPHEMERIS_TYPE":0,"CLASSIFICATION_TYPE":"U","NORAD_CAT_ID":48967,"ELEMENT_SET_NO":999,"REV_AT_EPOCH":21528,"BSTAR":0.00034095619,"MEAN_MOTION_DOT":1.43e-6,"MEAN_MOTION_DDOT":0},{"OBJECT_NAME":"ONEWEB-0250","OBJECT_ID":"2021-060B","EPOCH":"2025-12-14T06:14:02.030208","MEAN_MOTION":13.25820629,"ECCENTRICITY":0.0001245,"INCLINATION":87.9042,"RA_OF_ASC_NODE":263.962,"ARG_OF_PERICENTER":39.4911,"MEAN_ANOMALY":320.6316,"EPHEMERIS_TYPE":0,"CLASSIFICATION_TYPE":"U","NORAD_CAT_ID":48968,"ELEMENT_SET_NO":999,"REV_AT_EPOCH":21571,"BSTAR":0.00031141701,"MEAN_MOTION_DOT":1.5e-6,"MEAN_MOTION_DDOT":0},{"OBJECT_NAME":"ONEWEB-0252","OBJECT_ID":"2021-060D","EPOCH":"2025-12-14T06:13:11.013600","MEAN_MOTION":13.16593976,"ECCENTRICITY":0.00019267,"INCLINATION":87.9045,"RA_OF_ASC_NODE":265.5946,"ARG_OF_PERICENTER":78.0047,"MEAN_ANOMALY":282.13,"EPHEMERIS_TYPE":0,"CLASSIFICATION_TYPE":"U","NORAD_CAT_ID":48970,"ELEMENT_SET_NO":999,"REV_AT_EPOCH":21532,"BSTAR":9.246158e-5,"MEAN_MOTION_DOT":4.8e-7,"MEAN_MOTION_DDOT":0},{"OBJECT_NAME":"ONEWEB-0253","OBJECT_ID":"2021-060E","EPOCH":"2025-12-14T07:46:38.618976","MEAN_MOTION":13.16597418,"ECCENTRICITY":0.00018701,"INCLINATION":87.9047,"RA_OF_ASC_NODE":265.5863,"ARG_OF_PERICENTER":70.1464,"MEAN_ANOMALY":289.9868,"EPHEMERIS_TYPE":0,"CLASSIFICATION_TYPE":"U","NORAD_CAT_ID":48971,"ELEMENT_SET_NO":999,"REV_AT_EPOCH":21526,"BSTAR":-6.0026965e-5,"MEAN_MOTION_DOT":-1.0e-7,"MEAN_MOTION_DDOT":0},{"OBJECT_NAME":"ONEWEB-0254","OBJECT_ID":"2021-060F","EPOCH":"2025-12-14T08:00:19.397376","MEAN_MOTION":13.16594276,"ECCENTRICITY":0.00018177,"INCLINATION":87.9053,"RA_OF_ASC_NODE":265.576,"ARG_OF_PERICENTER":63.4314,"MEAN_ANOMALY":296.7003,"EPHEMERIS_TYPE":0,"CLASSIFICATION_TYPE":"U","NORAD_CAT_ID":48972,"ELEMENT_SET_NO":999,"REV_AT_EPOCH":21526,"BSTAR":-0.00083355542,"MEAN_MOTION_DOT":-3.06e-6,"MEAN_MOTION_DDOT":0},{"OBJECT_NAME":"ONEWEB-0255","OBJECT_ID":"2021-060G","EPOCH":"2025-12-14T07:05:36.258720","MEAN_MOTION":13.16596886,"ECCENTRICITY":0.00018166,"INCLINATION":87.9036,"RA_OF_ASC_NODE":265.5994,"ARG_OF_PERICENTER":66.7715,"MEAN_ANOMALY":293.3607,"EPHEMERIS_TYPE":0,"CLASSIFICATION_TYPE":"U","NORAD_CAT_ID":48973,"ELEMENT_SET_NO":999,"REV_AT_EPOCH":21533,"BSTAR":0.00012355776,"MEAN_MOTION_DOT":6.0e-7,"MEAN_MOTION_DDOT":0},{"OBJECT_NAME":"ONEWEB-0256","OBJECT_ID":"2021-060H","EPOCH":"2025-12-14T07:43:15.397536","MEAN_MOTION":13.16595516,"ECCENTRICITY":0.00017339,"INCLINATION":87.9037,"RA_OF_ASC_NODE":265.6025,"ARG_OF_PERICENTER":77.9586,"MEAN_ANOMALY":282.1739,"EPHEMERIS_TYPE":0,"CLASSIFICATION_TYPE":"U","NORAD_CAT_ID":48974,"ELEMENT_SET_NO":999,"REV_AT_EPOCH":21530,"BSTAR":4.5142477e-5,"MEAN_MOTION_DOT":3.0e-7,"MEAN_MOTION_DDOT":0},{"OBJECT_NAME":"ONEWEB-0257","OBJECT_ID":"2021-060J","EPOCH":"2025-12-14T06:40:32.349216","MEAN_MOTION":13.16595993,"ECCENTRICITY":0.00018497,"INCLINATION":87.9046,"RA_OF_ASC_NODE":265.5897,"ARG_OF_PERICENTER":71.4103,"MEAN_ANOMALY":288.7229,"EPHEMERIS_TYPE":0,"CLASSIFICATION_TYPE":"U","NORAD_CAT_ID":48975,"ELEMENT_SET_NO":999,"REV_AT_EPOCH":21525,"BSTAR":0.0001906369,"MEAN_MOTION_DOT":8.6e-7,"MEAN_MOTION_DDOT":0},{"OBJECT_NAME":"ONEWEB-0258","OBJECT_ID":"2021-060K","EPOCH":"2025-12-14T06:42:49.421952","MEAN_MOTION":13.16596056,"ECCENTRICITY":0.00016189,"INCLINATION":87.9041,"RA_OF_ASC_NODE":265.6045,"ARG_OF_PERICENTER":71.9565,"MEAN_ANOMALY":288.1742,"EPHEMERIS_TYPE":0,"CLASSIFICATION_TYPE":"U","NORAD_CAT_ID":48976,"ELEMENT_SET_NO":999,"REV_AT_EPOCH":21526,"BSTAR":0.00023845298,"MEAN_MOTION_DOT":1.04e-6,"MEAN_MOTION_DDOT":0},{"OBJECT_NAME":"ONEWEB-0259","OBJECT_ID":"2021-060L","EPOCH":"2025-12-14T06:33:42.084000","MEAN_MOTION":13.16595643,"ECCENTRICITY":0.00017827,"INCLINATION":87.9048,"RA_OF_ASC_NODE":265.6001,"ARG_OF_PERICENTER":68.7548,"MEAN_ANOMALY":291.3773,"EPHEMERIS_TYPE":0,"CLASSIFICATION_TYPE":"U","NORAD_CAT_ID":48977,"ELEMENT_SET_NO":999,"REV_AT_EPOCH":21529,"BSTAR":6.2466911e-5,"MEAN_MOTION_DOT":3.7e-7,"MEAN_MOTION_DDOT":0},{"OBJECT_NAME":"ONEWEB-0260","OBJECT_ID":"2021-060M","EPOCH":"2025-12-14T06:21:10.814400","MEAN_MOTION":13.16594656,"ECCENTRICITY":0.00019858,"INCLINATION":87.9036,"RA_OF_ASC_NODE":265.6154,"ARG_OF_PERICENTER":83.8823,"MEAN_ANOMALY":276.2535,"EPHEMERIS_TYPE":0,"CLASSIFICATION_TYPE":"U","NORAD_CAT_ID":48978,"ELEMENT_SET_NO":999,"REV_AT_EPOCH":21527,"BSTAR":1.86176e-5,"MEAN_MOTION_DOT":2.0e-7,"MEAN_MOTION_DDOT":0},{"OBJECT_NAME":"ONEWEB-0261","OBJECT_ID":"2021-060N","EPOCH":"2025-12-14T07:27:17.267328","MEAN_MOTION":13.16593846,"ECCENTRICITY":0.0002085,"INCLINATION":87.9035,"RA_OF_ASC_NODE":265.6083,"ARG_OF_PERICENTER":68.6505,"MEAN_ANOMALY":291.4848,"EPHEMERIS_TYPE":0,"CLASSIFICATION_TYPE":"U","NORAD_CAT_ID":48979,"ELEMENT_SET_NO":999,"REV_AT_EPOCH":21533,"BSTAR":0.00021909008,"MEAN_MOTION_DOT":9.7e-7,"MEAN_MOTION_DDOT":0}]
