ONEWEB-0248             
1 48798U 21045AH  25348.29313509  .00000090  00000+0  20485-3 0  9992
2 48798  87.9001 296.0742 0001988  60.8799 299.2530 13.15550727220109
ONEWEB-0225             
1 48799U 21045AJ  25348.31532428  .00000291  00000+0  73804-3 0  9995
2 48799  87.8991 296.0935 0002301  67.4261 292.7113 13.15550525220110
ONEWEB-0215             
1 48800U 21045AK  25348.28521924  .00000076  00000+0  16849-3 0  9990
2 48800  87.9006 296.0608 0002262  62.5168 297.6193 13.15550631219989
ONEWEB-0216             
1 48801U 21045AL  25348.29473553  .00000102  00000+0  23753-3 0  9998
2 48801  87.8992 296.0895 0001993  81.2750 278.8606 13.15549849219996
ONEWEB-0239             
1 48802U 21045AM  25348.29947172  .00000155  00000+0  37828-3 0  9998
2 48802  87.8991 296.1030 0002079  55.4995 304.6332 13.15551563220035
ONEWEB-0249             
1 48967U 21060A   25348.30348855  .00000143  00000+0  34096-3 0  9993
2 48967  87.9042 265.5925 0001783  70.1822 289.9501 13.16595909215289
ONEWEB-0250             
1 48968U 21060B   25348.25974572  .00000150  00000+0  31142-3 0  9996
2 48968  87.9042 263.9620 0001245  39.4911 320.6316 13.25820629215719
ONEWEB-0252             
1 48970U 21060D   25348.25915525  .00000048  00000+0  92462-4 0  9991
2 48970  87.9045 265.5946 0001926  78.0047 282.1300 13.16593976215323
ONEWEB-0253             
1 48971U 21060E   25348.32405809 -.00000010  00000+0 -60027-4 0  9992
2 48971  87.9047 265.5863 0001870  70.1464 289.9868 13.16597418215260
ONEWEB-0254             
1 48972U 21060F   25348.33355784 -.00000306  00000+0 -83356-3 0  9997
2 48972  87.9053 265.5760 0001817  63.4314 296.7003 13.16594276215260
ONEWEB-0255             
1 48973U 21060G   25348.29555855  .00000060  00000+0  12356-3 0  9991
2 48973  87.9036 265.5994 0001816  66.7715 293.3607 13.16596886215331
ONEWEB-0256             
1 48974U 21060H   25348.32170599  .00000030  00000+0  45142-4 0  9991
2 48974  87.9037 265.6025 0001733  77.9586 282.1739 13.16595516215305
ONEWEB-0257             
1 48975U 21060J   25348.27815219  .00000086  00000+0  19064-3 0  9995
2 48975  87.9046 265.5897 0001849  71.4103 288.7229 13.16595993215253
ONEWEB-0258             
1 48976U 21060K   25348.27973868  .00000104  00000+0  23845-3 0  9994
2 48976  87.9041 265.6045 0001618  71.9565 288.1742 13.16596056215262
ONEWEB-0259             
1 48977U 21060L   25348.27340375  .00000037  00000+0  62467-4 0  9995
2 48977  87.9048 265.6001 0001782  68.7548 291.3773 13.16595643215293
ONEWEB-0260             
1 48978U 21060M   25348.26470850  .00000020  00000+0  18618-4 0  9998
2 48978  87.9036 265.6154 0001985  83.8823 276.2535 13.16594656215278
ONEWEB-0261             
1 48979U 21060N   25348.31061652  .00000097  00000+0  21909-3 0  9991
2 48979  87.9035 265.6083 0002085  68.6505 291.4848 13.16593846215332
